STARLINK-30242          
1 57739U 23131H   26068.24040964  .00096683  00000+0  35094-2 0  9996
2 57739  43.0006 146.1862 0001698 280.6770  79.3890 15.27276599140181
TOMORROW-S3             
1 62392U 24247R   26068.49782200  .00007664  00000+0  28858-3 0  9991
2 62392  44.9999 117.9871 0000396 320.9462  39.1392 15.27672122 67708
