[{"OBJECT_NAME":"STARLINK-30242","OBJECT_ID":"2023-131H","EPOCH":"2026-03-09T05:46:11.392896","MEAN_MOTION":15.27276599,"ECCENTRICITY":0.0001698,"INCLINATION":43.0006,"RA_OF_ASC_NODE":146.1862,"ARG_OF_PERICENTER":280.677,"MEAN_ANOMALY":79.389,"EPHEMERIS_TYPE":0,"CLASSIFICATION_TYPE":"U","NORAD_CAT_ID":57739,"ELEMENT_SET_NO":999,"REV_AT_EPOCH":14018,"BSTAR":0.0035093531,"MEAN_MOTION_DOT":0.00096683,"MEAN_MOTION_DDOT":0},{"OBJECT_NAME":"TOMORROW-S3","OBJECT_ID":"2024-247R","EPOCH":"2026-03-09T11:56:51.820800","MEAN_MOTION":15.27672122,"ECCENTRICITY":3.967e-5,"INCLINATION":44.9999,"RA_OF_ASC_NODE":117.9871,"ARG_OF_PERICENTER":320.9462,"MEAN_ANOMALY":39.1392,"EPHEMERIS_TYPE":0,"CLASSIFICATION_TYPE":"U","NORAD_CAT_ID":62392,"ELEMENT_SET_NO":999,"REV_AT_EPOCH":6770,"BSTAR":0.00028857954,"MEAN_MOTION_DOT":7.664e-5,"MEAN_MOTION_DDOT":0}]
